{
  "type": "FeatureCollection",
  "features": [
    {
      "type": "Feature",
      "properties": {
        "norad_id": 31322,
        "name": "FENGYUN 1C DEB",
        "group": "fengyun-1c-debris",
        "lat": -71.37162209997079,
        "lon": -157.44341545319696,
        "alt_km": 1083.5050454639504,
        "timestamp": "2025-12-11T05:00:26.590565+00:00",
        "meta_object_name": "FENGYUN 1C DEB",
        "meta_object_id": "1999-025BQA",
        "meta_epoch": "2025-12-08T23:52:58.153728",
        "meta_mean_motion": 13.72994467,
        "meta_eccentricity": 0.0238726,
        "meta_inclination": 98.5739,
        "meta_ra_of_asc_node": 47.1579,
        "meta_arg_of_pericenter": 20.2617,
        "meta_mean_anomaly": 100.4309,
        "meta_ephemeris_type": 0,
        "meta_classification_type": "U",
        "meta_norad_cat_id": 31322,
        "meta_element_set_no": 999,
        "meta_rev_at_epoch": 62224,
        "meta_bstar": 0.00026306,
        "meta_mean_motion_dot": 2.61e-06,
        "meta_mean_motion_ddot": 0,
        "tle_line1": "1 31322U 99025BQA 25342.99511752  .00000261  00000+0  26306-3 0  9999",
        "tle_line2": "2 31322  98.5739  47.1579 0238726  20.2617 100.4309 13.72994467622248"
      },
      "geometry": {
        "type": "Point",
        "coordinates": [
          -157.44341545319696,
          -71.37162209997079
        ]
      }
    },
    {
      "type": "Feature",
      "properties": {
        "norad_id": 31323,
        "name": "FENGYUN 1C DEB",
        "group": "fengyun-1c-debris",
        "lat": -51.40828022855616,
        "lon": -168.44709534552504,
        "alt_km": 826.0237034945512,
        "timestamp": "2025-12-11T05:00:26.590576+00:00",
        "meta_object_name": "FENGYUN 1C DEB",
        "meta_object_id": "1999-025BQB",
        "meta_epoch": "2025-12-08T20:24:53.296704",
        "meta_mean_motion": 14.27547712,
        "meta_eccentricity": 0.0031659,
        "meta_inclination": 99.4204,
        "meta_ra_of_asc_node": 21.0206,
        "meta_arg_of_pericenter": 90.9492,
        "meta_mean_anomaly": 269.5314,
        "meta_ephemeris_type": 0,
        "meta_classification_type": "U",
        "meta_norad_cat_id": 31323,
        "meta_element_set_no": 999,
        "meta_rev_at_epoch": 63925,
        "meta_bstar": 0.0017663,
        "meta_mean_motion_dot": 4.319e-05,
        "meta_mean_motion_ddot": 0,
        "tle_line1": "1 31323U 99025BQB 25342.85061686  .00004319  00000+0  17663-2 0  9994",
        "tle_line2": "2 31323  99.4204  21.0206 0031659  90.9492 269.5314 14.27547712639255"
      },
      "geometry": {
        "type": "Point",
        "coordinates": [
          -168.44709534552504,
          -51.40828022855616
        ]
      }
    },
    {
      "type": "Feature",
      "properties": {
        "norad_id": 31324,
        "name": "FENGYUN 1C DEB",
        "group": "fengyun-1c-debris",
        "lat": 51.90627699566184,
        "lon": -105.17812915858376,
        "alt_km": 847.1164612493112,
        "timestamp": "2025-12-11T05:00:26.590585+00:00",
        "meta_object_name": "FENGYUN 1C DEB",
        "meta_object_id": "1999-025BQC",
        "meta_epoch": "2025-12-10T13:28:55.879104",
        "meta_mean_motion": 14.14692214,
        "meta_eccentricity": 0.0049382,
        "meta_inclination": 99.1235,
        "meta_ra_of_asc_node": 265.99,
        "meta_arg_of_pericenter": 310.451,
        "meta_mean_anomaly": 49.2361,
        "meta_ephemeris_type": 0,
        "meta_classification_type": "U",
        "meta_norad_cat_id": 31324,
        "meta_element_set_no": 999,
        "meta_rev_at_epoch": 96455,
        "meta_bstar": 0.00029196,
        "meta_mean_motion_dot": 5.21e-06,
        "meta_mean_motion_ddot": 0,
        "tle_line1": "1 31324U 99025BQC 25344.56175786  .00000521  00000+0  29196-3 0  9998",
        "tle_line2": "2 31324  99.1235 265.9900 0049382 310.4510  49.2361 14.14692214964553"
      },
      "geometry": {
        "type": "Point",
        "coordinates": [
          -105.17812915858376,
          51.90627699566184
        ]
      }
    },
    {
      "type": "Feature",
      "properties": {
        "norad_id": 31325,
        "name": "FENGYUN 1C DEB",
        "group": "fengyun-1c-debris",
        "lat": -46.9884571745134,
        "lon": 89.11997129793828,
        "alt_km": 840.1736291186862,
        "timestamp": "2025-12-11T05:00:26.590595+00:00",
        "meta_object_name": "FENGYUN 1C DEB",
        "meta_object_id": "1999-025BQD",
        "meta_epoch": "2025-12-08T12:49:45.026688",
        "meta_mean_motion": 14.16832394,
        "meta_eccentricity": 0.0071877,
        "meta_inclination": 98.9914,
        "meta_ra_of_asc_node": 76.6463,
        "meta_arg_of_pericenter": 232.309,
        "meta_mean_anomaly": 127.1552,
        "meta_ephemeris_type": 0,
        "meta_classification_type": "U",
        "meta_norad_cat_id": 31325,
        "meta_element_set_no": 999,
        "meta_rev_at_epoch": 59718,
        "meta_bstar": 0.0032596677,
        "meta_mean_motion_dot": 6.657e-05,
        "meta_mean_motion_ddot": 0,
        "tle_line1": "1 31325U 99025BQD 25342.53454892  .00006657  00000+0  32597-2 0  9996",
        "tle_line2": "2 31325  98.9914  76.6463 0071877 232.3090 127.1552 14.16832394597181"
      },
      "geometry": {
        "type": "Point",
        "coordinates": [
          89.11997129793828,
          -46.9884571745134
        ]
      }
    },
    {
      "type": "Feature",
      "properties": {
        "norad_id": 31326,
        "name": "FENGYUN 1C DEB",
        "group": "fengyun-1c-debris",
        "lat": 11.293032949863747,
        "lon": 48.77151039033824,
        "alt_km": 580.0952059521896,
        "timestamp": "2025-12-11T05:00:26.590605+00:00",
        "meta_object_name": "FENGYUN 1C DEB",
        "meta_object_id": "1999-025BQE",
        "meta_epoch": "2025-11-25T14:42:32.298048",
        "meta_mean_motion": 14.96360134,
        "meta_eccentricity": 0.00187059,
        "meta_inclination": 99.013,
        "meta_ra_of_asc_node": 208.9742,
        "meta_arg_of_pericenter": 1.9794,
        "meta_mean_anomaly": 358.1494,
        "meta_ephemeris_type": 0,
        "meta_classification_type": "U",
        "meta_norad_cat_id": 31326,
        "meta_element_set_no": 999,
        "meta_rev_at_epoch": 73489,
        "meta_bstar": 0.0084230344,
        "meta_mean_motion_dot": 0.00096893,
        "meta_mean_motion_ddot": 0,
        "tle_line1": "1 31326U 99025BQE 25329.61287382  .00096893  00000+0  84230-2 0  9991",
        "tle_line2": "2 31326  99.0130 208.9742 0018705   1.9794 358.1494 14.96360134734894"
      },
      "geometry": {
        "type": "Point",
        "coordinates": [
          48.77151039033824,
          11.293032949863747
        ]
      }
    },
    {
      "type": "Feature",
      "properties": {
        "norad_id": 31327,
        "name": "FENGYUN 1C DEB",
        "group": "fengyun-1c-debris",
        "lat": -80.95480979718246,
        "lon": 69.98127323080269,
        "alt_km": 555.1027338359909,
        "timestamp": "2025-12-11T05:00:26.590615+00:00",
        "meta_object_name": "FENGYUN 1C DEB",
        "meta_object_id": "1999-025BQF",
        "meta_epoch": "2025-12-09T23:11:42.451584",
        "meta_mean_motion": 15.10653335,
        "meta_eccentricity": 0.00874169,
        "meta_inclination": 98.9846,
        "meta_ra_of_asc_node": 344.8682,
        "meta_arg_of_pericenter": 18.8968,
        "meta_mean_anomaly": 341.5467,
        "meta_ephemeris_type": 0,
        "meta_classification_type": "U",
        "meta_norad_cat_id": 31327,
        "meta_element_set_no": 999,
        "meta_rev_at_epoch": 57,
        "meta_bstar": 0.00227557,
        "meta_mean_motion_dot": 0.00041356,
        "meta_mean_motion_ddot": 0,
        "tle_line1": "1 31327U 99025BQF 25343.96646356  .00041356  00000+0  22756-2 0  9995",
        "tle_line2": "2 31327  98.9846 344.8682 0087416  18.8968 341.5467 15.10653335   577"
      },
      "geometry": {
        "type": "Point",
        "coordinates": [
          69.98127323080269,
          -80.95480979718246
        ]
      }
    },
    {
      "type": "Feature",
      "properties": {
        "norad_id": 31328,
        "name": "FENGYUN 1C DEB",
        "group": "fengyun-1c-debris",
        "lat": 11.716143150067,
        "lon": 140.79042502241958,
        "alt_km": 751.342469060246,
        "timestamp": "2025-12-11T05:00:26.590625+00:00",
        "meta_object_name": "FENGYUN 1C DEB",
        "meta_object_id": "1999-025BQG",
        "meta_epoch": "2025-12-10T04:41:16.491264",
        "meta_mean_motion": 14.28942872,
        "meta_eccentricity": 0.01034981,
        "meta_inclination": 98.483,
        "meta_ra_of_asc_node": 318.0309,
        "meta_arg_of_pericenter": 223.9854,
        "meta_mean_anomaly": 135.3058,
        "meta_ephemeris_type": 0,
        "meta_classification_type": "U",
        "meta_norad_cat_id": 31328,
        "meta_element_set_no": 999,
        "meta_rev_at_epoch": 97426,
        "meta_bstar": 0.00012201467,
        "meta_mean_motion_dot": 2.83e-06,
        "meta_mean_motion_ddot": 0,
        "tle_line1": "1 31328U 99025BQG 25344.19532976  .00000283  00000+0  12201-3 0  9993",
        "tle_line2": "2 31328  98.4830 318.0309 0103498 223.9854 135.3058 14.28942872974263"
      },
      "geometry": {
        "type": "Point",
        "coordinates": [
          140.79042502241958,
          11.716143150067
        ]
      }
    }
  ]
}